[{"OBJECT_NAME":"STARLINK-35216","OBJECT_ID":"2025-198AA","EPOCH":"2026-03-09T22:16:53.911200","MEAN_MOTION":15.30208648,"ECCENTRICITY":8.442e-5,"INCLINATION":53.1571,"RA_OF_ASC_NODE":270.0946,"ARG_OF_PERICENTER":140.656,"MEAN_ANOMALY":219.4502,"EPHEMERIS_TYPE":0,"CLASSIFICATION_TYPE":"U","NORAD_CAT_ID":65516,"ELEMENT_SET_NO":999,"REV_AT_EPOCH":2865,"BSTAR":0.00066892878,"MEAN_MOTION_DOT":0.0001951,"MEAN_MOTION_DDOT":0},{"OBJECT_NAME":"PEGASUS R\/B","OBJECT_ID":"2000-030B","EPOCH":"2026-03-09T21:30:54.786816","MEAN_MOTION":14.17736627,"ECCENTRICITY":0.05948351,"INCLINATION":68.9475,"RA_OF_ASC_NODE":2.7595,"ARG_OF_PERICENTER":199.9382,"MEAN_ANOMALY":157.758,"EPHEMERIS_TYPE":0,"CLASSIFICATION_TYPE":"U","NORAD_CAT_ID":26375,"ELEMENT_SET_NO":999,"REV_AT_EPOCH":65081,"BSTAR":0.0003863695,"MEAN_MOTION_DOT":4.875e-5,"MEAN_MOTION_DDOT":0}]
